ONEWEB-0589             
1 54655U 22166P   24317.84819161 -.00000224  00000+0 -57443-3 0  9992
2 54655  87.9325 359.7911 0002414 117.4090 242.7289 13.21823845 94744
ONEWEB-0590             
1 54656U 22166Q   24317.64476220  .00000019  00000+0  13440-4 0  9996
2 54656  87.9316 359.8407 0001694 100.2545 259.8780 13.21827091 94708
ONEWEB-0591             
1 54657U 22166R   24317.88447968 -.00000017  00000+0 -72932-4 0  9991
2 54657  87.9326 359.7856 0001894 102.0390 258.0956 13.21825994 94769
ONEWEB-0592             
1 54658U 22166S   24317.66053510 -.00000064  00000+0 -18759-3 0  9992
2 54658  87.9323 359.7903 0001839 101.8751 258.2589 13.21824051 94618
ONEWEB-0593             
1 54659U 22166T   24317.83558987  .00000098  00000+0  20529-3 0  9993
2 54659  87.9324 359.7863 0001963 103.3695 256.7658 13.21825999 94743
ONEWEB-0594             
1 54660U 22166U   24317.85450712  .00000168  00000+0  37463-3 0  9997
2 54660  87.9327 359.7877 0001865  95.5022 264.6325 13.21828040 94761
ONEWEB-0595             
1 54661U 22166V   24317.83242768  .00000060  00000+0  11404-3 0  9994
2 54661  87.9325 359.7756 0001717  93.0992 267.0338 13.21828137 94736
ONEWEB-0596             
1 54662U 22166W   24317.88132170  .00000009  00000+0 -86746-5 0  9992
2 54662  87.9330 359.7743 0001854 105.9198 254.2141 13.21824571 94741
